{"type": "FeatureCollection", "features": [ {"type": "Feature", "properties": {"norad_id": 30081, "name": "FENGYUN 1C DEB", "group": "fengyun-1c-debris", "lat": -14.772650643465179, "lon": -18.26855478820303, "alt_km": 849.156962887273, "timestamp": "2025-12-08T23:34:04.243111+00:00", "meta": {"OBJECT_NAME": "FENGYUN 1C DEB", "OBJECT_ID": "1999-025QJ", "EPOCH": "2025-12-08T13:53:34.130400", "MEAN_MOTION": 13.98269355, "ECCENTRICITY": 0.00760884, "INCLINATION": 98.9222, "RA_OF_ASC_NODE": 338.9653, "ARG_OF_PERICENTER": 350.703, "MEAN_ANOMALY": 126.3894, "EPHEMERIS_TYPE": 0, "CLASSIFICATION_TYPE": "U", "NORAD_CAT_ID": 30081, "ELEMENT_SET_NO": 999, "REV_AT_EPOCH": 96296, "BSTAR": 0.00078845802, "MEAN_MOTION_DOT": 1.109e-05, "MEAN_MOTION_DDOT": 0}, "tle": {"line1": "1 30081U 99025QJ  25342.57886725  .00001109  00000+0  78846-3 0  9997", "line2": "2 30081  98.9222 338.9653 0076088 350.7030 126.3894 13.98269355962966"}}, "geometry": {"type": "Point", "coordinates": [-18.26855478820303, -14.772650643465179]}}, {"type": "Feature", "properties": {"norad_id": 30082, "name": "FENGYUN 1C DEB", "group": "fengyun-1c-debris", "lat": 80.86825763718826, "lon": 165.0918978857016, "alt_km": 510.9249465331559, "timestamp": "2025-12-08T23:34:04.243121+00:00", "meta": {"OBJECT_NAME": "FENGYUN 1C DEB", "OBJECT_ID": "1999-025QK", "EPOCH": "2025-12-08T08:53:24.571392", "MEAN_MOTION": 15.14792168, "ECCENTRICITY": 0.00696033, "INCLINATION": 98.818, "RA_OF_ASC_NODE": 269.4214, "ARG_OF_PERICENTER": 181.0524, "MEAN_ANOMALY": 179.0569, "EPHEMERIS_TYPE": 0, "CLASSIFICATION_TYPE": "U", "NORAD_CAT_ID": 30082, "ELEMENT_SET_NO": 999, "REV_AT_EPOCH": 1227, "BSTAR": 0.0013909831, "MEAN_MOTION_DOT": 0.00027434, "MEAN_MOTION_DDOT": 0}, "tle": {"line1": "1 30082U 99025QK  25342.37042328  .00027434  00000+0  13910-2 0  9998", "line2": "2 30082  98.8180 269.4214 0069603 181.0524 179.0569 15.14792168 12275"}}, "geometry": {"type": "Point", "coordinates": [165.0918978857016, 80.86825763718826]}}, {"type": "Feature", "properties": {"norad_id": 30086, "name": "FENGYUN 1C DEB", "group": "fengyun-1c-debris", "lat": 57.123858174751156, "lon": 2.6926856797188967, "alt_km": 872.0789800706634, "timestamp": "2025-12-08T23:34:04.243131+00:00", "meta": {"OBJECT_NAME": "FENGYUN 1C DEB", "OBJECT_ID": "1999-025QP", "EPOCH": "2025-12-08T01:11:44.803104", "MEAN_MOTION": 14.03818317, "ECCENTRICITY": 0.00617235, "INCLINATION": 98.9102, "RA_OF_ASC_NODE": 15.826, "ARG_OF_PERICENTER": 147.4114, "MEAN_ANOMALY": 243.2235, "EPHEMERIS_TYPE": 0, "CLASSIFICATION_TYPE": "U", "NORAD_CAT_ID": 30086, "ELEMENT_SET_NO": 999, "REV_AT_EPOCH": 96630, "BSTAR": 0.0005515509, "MEAN_MOTION_DOT": 8.41e-06, "MEAN_MOTION_DDOT": 0}, "tle": {"line1": "1 30086U 99025QP  25342.04982411  .00000841  00000+0  55155-3 0  9993", "line2": "2 30086  98.9102  15.8260 0061723 147.4114 243.2235 14.03818317966302"}}, "geometry": {"type": "Point", "coordinates": [2.6926856797188967, 57.123858174751156]}}, {"type": "Feature", "properties": {"norad_id": 30087, "name": "FENGYUN 1C DEB", "group": "fengyun-1c-debris", "lat": -74.20485996003427, "lon": 163.92175996179586, "alt_km": 869.4693516001535, "timestamp": "2025-12-08T23:34:04.243142+00:00", "meta": {"OBJECT_NAME": "FENGYUN 1C DEB", "OBJECT_ID": "1999-025QQ", "EPOCH": "2025-12-08T14:46:11.144064", "MEAN_MOTION": 14.35691621, "ECCENTRICITY": 0.02301732, "INCLINATION": 98.3806, "RA_OF_ASC_NODE": 14.9731, "ARG_OF_PERICENTER": 133.638, "MEAN_ANOMALY": 27.084, "EPHEMERIS_TYPE": 0, "CLASSIFICATION_TYPE": "U", "NORAD_CAT_ID": 30087, "ELEMENT_SET_NO": 999, "REV_AT_EPOCH": 98636, "BSTAR": 0.00048344477, "MEAN_MOTION_DOT": 1.839e-05, "MEAN_MOTION_DDOT": 0}, "tle": {"line1": "1 30087U 99025QQ  25342.61540676  .00001839  00000+0  48344-3 0  9990", "line2": "2 30087  98.3806  14.9731 0230173 133.6380  27.0840 14.35691621986360"}}, "geometry": {"type": "Point", "coordinates": [163.92175996179586, -74.20485996003427]}}, {"type": "Feature", "properties": {"norad_id": 30088, "name": "FENGYUN 1C DEB", "group": "fengyun-1c-debris", "lat": 32.20481790076525, "lon": 152.68473816152758, "alt_km": 820.2217328093502, "timestamp": "2025-12-08T23:34:04.243152+00:00", "meta": {"OBJECT_NAME": "FENGYUN 1C DEB", "OBJECT_ID": "1999-025QR", "EPOCH": "2025-12-08T11:43:07.364352", "MEAN_MOTION": 14.35893259, "ECCENTRICITY": 0.02007576, "INCLINATION": 98.3538, "RA_OF_ASC_NODE": 326.8957, "ARG_OF_PERICENTER": 260.2613, "MEAN_ANOMALY": 218.5638, "EPHEMERIS_TYPE": 0, "CLASSIFICATION_TYPE": "U", "NORAD_CAT_ID": 30088, "ELEMENT_SET_NO": 999, "REV_AT_EPOCH": 98611, "BSTAR": 0.00069827987, "MEAN_MOTION_DOT": 2.497e-05, "MEAN_MOTION_DDOT": 0}, "tle": {"line1": "1 30088U 99025QR  25342.48827968  .00002497  00000+0  69828-3 0  9999", "line2": "2 30088  98.3538 326.8957 0200757 260.2613 218.5638 14.35893259986115"}}, "geometry": {"type": "Point", "coordinates": [152.68473816152758, 32.20481790076525]}}, {"type": "Feature", "properties": {"norad_id": 30089, "name": "FENGYUN 1C DEB", "group": "fengyun-1c-debris", "lat": -74.54446138183239, "lon": 33.75171061169877, "alt_km": 755.5942340279698, "timestamp": "2025-12-08T23:34:04.243163+00:00", "meta": {"OBJECT_NAME": "FENGYUN 1C DEB", "OBJECT_ID": "1999-025QS", "EPOCH": "2025-12-08T15:56:32.157312", "MEAN_MOTION": 14.3029789, "ECCENTRICITY": 0.00731302, "INCLINATION": 98.903, "RA_OF_ASC_NODE": 247.9632, "ARG_OF_PERICENTER": 221.9759, "MEAN_ANOMALY": 199.7186, "EPHEMERIS_TYPE": 0, "CLASSIFICATION_TYPE": "U", "NORAD_CAT_ID": 30089, "ELEMENT_SET_NO": 999, "REV_AT_EPOCH": 98421, "BSTAR": 0.00047130439, "MEAN_MOTION_DOT": 1.212e-05, "MEAN_MOTION_DDOT": 0}, "tle": {"line1": "1 30089U 99025QS  25342.66426108  .00001212  00000+0  47130-3 0  9997", "line2": "2 30089  98.9030 247.9632 0073130 221.9759 199.7186 14.30297890984211"}}, "geometry": {"type": "Point", "coordinates": [33.75171061169877, -74.54446138183239]}}, {"type": "Feature", "properties": {"norad_id": 30090, "name": "FENGYUN 1C DEB", "group": "fengyun-1c-debris", "lat": 11.221404674114122, "lon": -22.34029693339692, "alt_km": 767.2467463886569, "timestamp": "2025-12-08T23:34:04.243173+00:00", "meta": {"OBJECT_NAME": "FENGYUN 1C DEB", "OBJECT_ID": "1999-025QT", "EPOCH": "2025-12-08T11:17:02.120352", "MEAN_MOTION": 14.29018184, "ECCENTRICITY": 0.00581495, "INCLINATION": 99.4091, "RA_OF_ASC_NODE": 155.2226, "ARG_OF_PERICENTER": 123.952, "MEAN_ANOMALY": 292.4503, "EPHEMERIS_TYPE": 0, "CLASSIFICATION_TYPE": "U", "NORAD_CAT_ID": 30090, "ELEMENT_SET_NO": 999, "REV_AT_EPOCH": 98209, "BSTAR": 0.00058131353, "MEAN_MOTION_DOT": 1.448e-05, "MEAN_MOTION_DDOT": 0}, "tle": {"line1": "1 30090U 99025QT  25342.47016343  .00001448  00000+0  58131-3 0  9998", "line2": "2 30090  99.4091 155.2226 0058149 123.9520 292.4503 14.29018184982099"}}, "geometry": {"type": "Point", "coordinates": [-22.34029693339692, 11.221404674114122]}}, {"type": "Feature", "properties": {"norad_id": 30092, "name": "FENGYUN 1C DEB", "group": "fengyun-1c-debris", "lat": -7.896449612921628, "lon": 163.33394139027166, "alt_km": 765.3450677266956, "timestamp": "2025-12-08T23:34:04.243183+00:00", "meta": {"OBJECT_NAME": "FENGYUN 1C DEB", "OBJECT_ID": "1999-025QV", "EPOCH": "2025-12-08T12:12:50.287968", "MEAN_MOTION": 14.39115802, "ECCENTRICITY": 0.00825793, "INCLINATION": 98.9226, "RA_OF_ASC_NODE": 161.5934, "ARG_OF_PERICENTER": 263.019, "MEAN_ANOMALY": 158.6231, "EPHEMERIS_TYPE": 0, "CLASSIFICATION_TYPE": "U", "NORAD_CAT_ID": 30092, "ELEMENT_SET_NO": 999, "REV_AT_EPOCH": 98688, "BSTAR": 0.00098186129, "MEAN_MOTION_DOT": 3.112e-05, "MEAN_MOTION_DDOT": 0}, "tle": {"line1": "1 30092U 99025QV  25342.50891537  .00003112  00000+0  98186-3 0  9994", "line2": "2 30092  98.9226 161.5934 0082579 263.0190 158.6231 14.39115802986882"}}, "geometry": {"type": "Point", "coordinates": [163.33394139027166, -7.896449612921628]}}, {"type": "Feature", "properties": {"norad_id": 30093, "name": "FENGYUN 1C DEB", "group": "fengyun-1c-debris", "lat": 35.75889612315696, "lon": 43.85179595151426, "alt_km": 789.3502939206073, "timestamp": "2025-12-08T23:34:04.243194+00:00", "meta": {"OBJECT_NAME": "FENGYUN 1C DEB", "OBJECT_ID": "1999-025QW", "EPOCH": "2025-12-08T14:49:58.435680", "MEAN_MOTION": 14.43651938, "ECCENTRICITY": 0.00704246, "INCLINATION": 98.8672, "RA_OF_ASC_NODE": 217.018, "ARG_OF_PERICENTER": 349.8114, "MEAN_ANOMALY": 63.0437, "EPHEMERIS_TYPE": 0, "CLASSIFICATION_TYPE": "U", "NORAD_CAT_ID": 30093, "ELEMENT_SET_NO": 999, "REV_AT_EPOCH": 98744, "BSTAR": 0.0015192058, "MEAN_MOTION_DOT": 5.266e-05, "MEAN_MOTION_DDOT": 0}, "tle": {"line1": "1 30093U 99025QW  25342.61803745  .00005266  00000+0  15192-2 0  9998", "line2": "2 30093  98.8672 217.0180 0070424 349.8114  63.0437 14.43651938987442"}}, "geometry": {"type": "Point", "coordinates": [43.85179595151426, 35.75889612315696]}}, {"type": "Feature", "properties": {"norad_id": 30095, "name": "FENGYUN 1C DEB", "group": "fengyun-1c-debris", "lat": 69.9544326240807, "lon": 109.97373147374108, "alt_km": 680.6074981162292, "timestamp": "2025-12-08T23:34:04.243204+00:00", "meta": {"OBJECT_NAME": "FENGYUN 1C DEB", "OBJECT_ID": "1999-025QY", "EPOCH": "2025-12-08T08:30:04.355712", "MEAN_MOTION": 14.81639497, "ECCENTRICITY": 0.01670542, "INCLINATION": 99.22, "RA_OF_ASC_NODE": 262.8169, "ARG_OF_PERICENTER": 346.1949, "MEAN_ANOMALY": 13.4719, "EPHEMERIS_TYPE": 0, "CLASSIFICATION_TYPE": "U", "NORAD_CAT_ID": 30095, "ELEMENT_SET_NO": 999, "REV_AT_EPOCH": 99270, "BSTAR": 0.0026971641, "MEAN_MOTION_DOT": 0.00027053, "MEAN_MOTION_DDOT": 0}, "tle": {"line1": "1 30095U 99025QY  25342.35421708  .00027053  00000+0  26972-2 0  9992", "line2": "2 30095  99.2200 262.8169 0167054 346.1949  13.4719 14.81639497992708"}}, "geometry": {"type": "Point", "coordinates": [109.97373147374108, 69.9544326240807]}}]}